SL-14 R/B               
1 16792U 86046B   26076.08165633  .00000447  00000+0  48712-4 0  9992
2 16792  82.4785  73.1948 0022510 199.9614 160.0724 14.85597742127509
SL-14 R/B               
1 16882U 86055B   26076.14300394  .00000421  00000+0  45774-4 0  9991
2 16882  82.5185 119.6678 0017641 310.6854 103.6321 14.85649388120476
AJISAI (EGS)            
1 16908U 86061A   26076.19166822 -.00000092  00000+0  34480-4 0  9995
2 16908  50.0087  70.2779 0011291 306.3295 157.2106 12.44515706468937
SL-14 R/B               
1 17567U 87024B   26076.04502972  .00000446  00000+0  47982-4 0  9994
2 17567  82.5243  85.8483 0016931 233.5003 126.4655 14.86139233 89224
COSMOS 1833             
1 17589U 87027A   26076.08082535 -.00000210  00000+0 -86503-4 0  9996
2 17589  70.9205 310.4850 0023886 203.9835 156.0175 14.13052588 11366
SL-16 R/B               
1 17590U 87027B   26075.96248451 -.00000011  00000+0  18507-4 0  9992
2 17590  70.9993 261.1677 0003140 126.3175 233.8239 14.17166758 16377
SL-14 R/B               
1 17912U 87038B   26076.11115152  .00000398  00000+0  43248-4 0  9998
2 17912  82.4989 289.8153 0020270 136.8403 223.4407 14.85375827 80330
COSMOS 1844             
1 17973U 87041A   26076.10814951 -.00000054  00000+0 -27645-5 0  9996
2 17973  70.9006  18.5281 0030396   7.0175 353.1366 14.14551078  4633
SL-14 R/B               
1 18153U 87055B   26076.08673884  .00000464  00000+0  50593-4 0  9997
2 18153  82.5027 342.0617 0020466 353.7363   6.3594 14.85637730 71037
COSMOS 1867             
1 18187U 87060A   26075.91645426 -.00000023  00000+0  29176-4 0  9997
2 18187  65.0099 286.4666 0014596 279.0884  80.8549 14.31504116 20975
SL-14 R/B               
1 18749U 88001B   26076.01522316  .00000485  00000+0  53193-4 0  9998
2 18749  82.5159 188.4720 0017316 210.0247 149.9978 14.85536645 43118
COSMOS 1933             
1 18958U 88020A   26076.17283526  .00003180  00000+0  15470-3 0  9995
2 18958  82.5101 243.5061 0004455 157.7955 202.3473 15.18056098 51367
