CCSDS_OMM_VERS = 2.0
CREATION_DATE  = 
ORIGINATOR     = 

OBJECT_NAME    = SL-14 R/B
OBJECT_ID      = 1986-046B
CENTER_NAME    = EARTH
REF_FRAME      = TEME
TIME_SYSTEM    = UTC
MEAN_ELEMENT_THEORY = SGP/SGP4

EPOCH          = 2026-03-17T01:57:35.106912
MEAN_MOTION    = 14.85597742
ECCENTRICITY   = .002251
INCLINATION    = 82.4785
RA_OF_ASC_NODE = 73.1948
ARG_OF_PERICENTER = 199.9614
MEAN_ANOMALY   = 160.0724

EPHEMERIS_TYPE = 0
CLASSIFICATION_TYPE = U
NORAD_CAT_ID   = 16792
ELEMENT_SET_NO = 999
REV_AT_EPOCH   = 12750
BSTAR          = .48712E-4
MEAN_MOTION_DOT = .447E-5
MEAN_MOTION_DDOT = 0

CCSDS_OMM_VERS = 2.0
CREATION_DATE  = 
ORIGINATOR     = 

OBJECT_NAME    = SL-14 R/B
OBJECT_ID      = 1986-055B
CENTER_NAME    = EARTH
REF_FRAME      = TEME
TIME_SYSTEM    = UTC
MEAN_ELEMENT_THEORY = SGP/SGP4

EPOCH          = 2026-03-17T03:25:55.540416
MEAN_MOTION    = 14.85649388
ECCENTRICITY   = .0017641
INCLINATION    = 82.5185
RA_OF_ASC_NODE = 119.6678
ARG_OF_PERICENTER = 310.6854
MEAN_ANOMALY   = 103.6321

EPHEMERIS_TYPE = 0
CLASSIFICATION_TYPE = U
NORAD_CAT_ID   = 16882
ELEMENT_SET_NO = 999
REV_AT_EPOCH   = 12047
BSTAR          = .45774E-4
MEAN_MOTION_DOT = .421E-5
MEAN_MOTION_DDOT = 0

CCSDS_OMM_VERS = 2.0
CREATION_DATE  = 
ORIGINATOR     = 

OBJECT_NAME    = AJISAI (EGS)
OBJECT_ID      = 1986-061A
CENTER_NAME    = EARTH
REF_FRAME      = TEME
TIME_SYSTEM    = UTC
MEAN_ELEMENT_THEORY = SGP/SGP4

EPOCH          = 2026-03-17T04:36:00.134208
MEAN_MOTION    = 12.44515706
ECCENTRICITY   = .0011291
INCLINATION    = 50.0087
RA_OF_ASC_NODE = 70.2779
ARG_OF_PERICENTER = 306.3295
MEAN_ANOMALY   = 157.2106

EPHEMERIS_TYPE = 0
CLASSIFICATION_TYPE = U
NORAD_CAT_ID   = 16908
ELEMENT_SET_NO = 999
REV_AT_EPOCH   = 46893
BSTAR          = .3448E-4
MEAN_MOTION_DOT = -.92E-6
MEAN_MOTION_DDOT = 0

CCSDS_OMM_VERS = 2.0
CREATION_DATE  = 
ORIGINATOR     = 

OBJECT_NAME    = SL-14 R/B
OBJECT_ID      = 1987-024B
CENTER_NAME    = EARTH
REF_FRAME      = TEME
TIME_SYSTEM    = UTC
MEAN_ELEMENT_THEORY = SGP/SGP4

EPOCH          = 2026-03-17T01:04:50.567808
MEAN_MOTION    = 14.86139233
ECCENTRICITY   = .0016931
INCLINATION    = 82.5243
RA_OF_ASC_NODE = 85.8483
ARG_OF_PERICENTER = 233.5003
MEAN_ANOMALY   = 126.4655

EPHEMERIS_TYPE = 0
CLASSIFICATION_TYPE = U
NORAD_CAT_ID   = 17567
ELEMENT_SET_NO = 999
REV_AT_EPOCH   = 8922
BSTAR          = .47982E-4
MEAN_MOTION_DOT = .446E-5
MEAN_MOTION_DDOT = 0

CCSDS_OMM_VERS = 2.0
CREATION_DATE  = 
ORIGINATOR     = 

OBJECT_NAME    = COSMOS 1833
OBJECT_ID      = 1987-027A
CENTER_NAME    = EARTH
REF_FRAME      = TEME
TIME_SYSTEM    = UTC
MEAN_ELEMENT_THEORY = SGP/SGP4

EPOCH          = 2026-03-17T01:56:23.310240
MEAN_MOTION    = 14.13052588
ECCENTRICITY   = .0023886
INCLINATION    = 70.9205
RA_OF_ASC_NODE = 310.4850
ARG_OF_PERICENTER = 203.9835
MEAN_ANOMALY   = 156.0175

EPHEMERIS_TYPE = 0
CLASSIFICATION_TYPE = U
NORAD_CAT_ID   = 17589
ELEMENT_SET_NO = 999
REV_AT_EPOCH   = 1136
BSTAR          = -.86503E-4
MEAN_MOTION_DOT = -.21E-5
MEAN_MOTION_DDOT = 0

CCSDS_OMM_VERS = 2.0
CREATION_DATE  = 
ORIGINATOR     = 

OBJECT_NAME    = SL-16 R/B
OBJECT_ID      = 1987-027B
CENTER_NAME    = EARTH
REF_FRAME      = TEME
TIME_SYSTEM    = UTC
MEAN_ELEMENT_THEORY = SGP/SGP4

EPOCH          = 2026-03-16T23:05:58.661664
MEAN_MOTION    = 14.17166758
ECCENTRICITY   = .000314
INCLINATION    = 70.9993
RA_OF_ASC_NODE = 261.1677
ARG_OF_PERICENTER = 126.3175
MEAN_ANOMALY   = 233.8239

EPHEMERIS_TYPE = 0
CLASSIFICATION_TYPE = U
NORAD_CAT_ID   = 17590
ELEMENT_SET_NO = 999
REV_AT_EPOCH   = 1637
BSTAR          = .18507E-4
MEAN_MOTION_DOT = -.11E-6
MEAN_MOTION_DDOT = 0

CCSDS_OMM_VERS = 2.0
CREATION_DATE  = 
ORIGINATOR     = 

OBJECT_NAME    = SL-14 R/B
OBJECT_ID      = 1987-038B
CENTER_NAME    = EARTH
REF_FRAME      = TEME
TIME_SYSTEM    = UTC
MEAN_ELEMENT_THEORY = SGP/SGP4

EPOCH          = 2026-03-17T02:40:03.491328
MEAN_MOTION    = 14.85375827
ECCENTRICITY   = .002027
INCLINATION    = 82.4989
RA_OF_ASC_NODE = 289.8153
ARG_OF_PERICENTER = 136.8403
MEAN_ANOMALY   = 223.4407

EPHEMERIS_TYPE = 0
CLASSIFICATION_TYPE = U
NORAD_CAT_ID   = 17912
ELEMENT_SET_NO = 999
REV_AT_EPOCH   = 8033
BSTAR          = .43248E-4
MEAN_MOTION_DOT = .398E-5
MEAN_MOTION_DDOT = 0

CCSDS_OMM_VERS = 2.0
CREATION_DATE  = 
ORIGINATOR     = 

OBJECT_NAME    = COSMOS 1844
OBJECT_ID      = 1987-041A
CENTER_NAME    = EARTH
REF_FRAME      = TEME
TIME_SYSTEM    = UTC
MEAN_ELEMENT_THEORY = SGP/SGP4

EPOCH          = 2026-03-17T02:35:44.117664
MEAN_MOTION    = 14.14551078
ECCENTRICITY   = .0030396
INCLINATION    = 70.9006
RA_OF_ASC_NODE = 18.5281
ARG_OF_PERICENTER = 7.0175
MEAN_ANOMALY   = 353.1366

EPHEMERIS_TYPE = 0
CLASSIFICATION_TYPE = U
NORAD_CAT_ID   = 17973
ELEMENT_SET_NO = 999
REV_AT_EPOCH   = 463
BSTAR          = -.27645E-5
MEAN_MOTION_DOT = -.54E-6
MEAN_MOTION_DDOT = 0

CCSDS_OMM_VERS = 2.0
CREATION_DATE  = 
ORIGINATOR     = 

OBJECT_NAME    = SL-14 R/B
OBJECT_ID      = 1987-055B
CENTER_NAME    = EARTH
REF_FRAME      = TEME
TIME_SYSTEM    = UTC
MEAN_ELEMENT_THEORY = SGP/SGP4

EPOCH          = 2026-03-17T02:04:54.235776
MEAN_MOTION    = 14.85637730
ECCENTRICITY   = .0020466
INCLINATION    = 82.5027
RA_OF_ASC_NODE = 342.0617
ARG_OF_PERICENTER = 353.7363
MEAN_ANOMALY   = 6.3594

EPHEMERIS_TYPE = 0
CLASSIFICATION_TYPE = U
NORAD_CAT_ID   = 18153
ELEMENT_SET_NO = 999
REV_AT_EPOCH   = 7103
BSTAR          = .50593E-4
MEAN_MOTION_DOT = .464E-5
MEAN_MOTION_DDOT = 0

CCSDS_OMM_VERS = 2.0
CREATION_DATE  = 
ORIGINATOR     = 

OBJECT_NAME    = COSMOS 1867
OBJECT_ID      = 1987-060A
CENTER_NAME    = EARTH
REF_FRAME      = TEME
TIME_SYSTEM    = UTC
MEAN_ELEMENT_THEORY = SGP/SGP4

EPOCH          = 2026-03-16T21:59:41.648064
MEAN_MOTION    = 14.31504116
ECCENTRICITY   = .0014596
INCLINATION    = 65.0099
RA_OF_ASC_NODE = 286.4666
ARG_OF_PERICENTER = 279.0884
MEAN_ANOMALY   = 80.8549

EPHEMERIS_TYPE = 0
CLASSIFICATION_TYPE = U
NORAD_CAT_ID   = 18187
ELEMENT_SET_NO = 999
REV_AT_EPOCH   = 2097
BSTAR          = .29176E-4
MEAN_MOTION_DOT = -.23E-6
MEAN_MOTION_DDOT = 0

CCSDS_OMM_VERS = 2.0
CREATION_DATE  = 
ORIGINATOR     = 

OBJECT_NAME    = SL-14 R/B
OBJECT_ID      = 1988-001B
CENTER_NAME    = EARTH
REF_FRAME      = TEME
TIME_SYSTEM    = UTC
MEAN_ELEMENT_THEORY = SGP/SGP4

EPOCH          = 2026-03-17T00:21:55.281024
MEAN_MOTION    = 14.85536645
ECCENTRICITY   = .0017316
INCLINATION    = 82.5159
RA_OF_ASC_NODE = 188.4720
ARG_OF_PERICENTER = 210.0247
MEAN_ANOMALY   = 149.9978

EPHEMERIS_TYPE = 0
CLASSIFICATION_TYPE = U
NORAD_CAT_ID   = 18749
ELEMENT_SET_NO = 999
REV_AT_EPOCH   = 4311
BSTAR          = .53193E-4
MEAN_MOTION_DOT = .485E-5
MEAN_MOTION_DDOT = 0

CCSDS_OMM_VERS = 2.0
CREATION_DATE  = 
ORIGINATOR     = 

OBJECT_NAME    = COSMOS 1933
OBJECT_ID      = 1988-020A
CENTER_NAME    = EARTH
REF_FRAME      = TEME
TIME_SYSTEM    = UTC
MEAN_ELEMENT_THEORY = SGP/SGP4

EPOCH          = 2026-03-17T04:08:52.966464
MEAN_MOTION    = 15.18056098
ECCENTRICITY   = .0004455
INCLINATION    = 82.5101
RA_OF_ASC_NODE = 243.5061
ARG_OF_PERICENTER = 157.7955
MEAN_ANOMALY   = 202.3473

EPHEMERIS_TYPE = 0
CLASSIFICATION_TYPE = U
NORAD_CAT_ID   = 18958
ELEMENT_SET_NO = 999
REV_AT_EPOCH   = 5136
BSTAR          = .1547E-3
MEAN_MOTION_DOT = .318E-4
MEAN_MOTION_DDOT = 0

